{
"type": "FeatureCollection",
"name": "durham_county_boundary",
"crs": { "type": "name", "properties": { "name": "urn:ogc:def:crs:OGC:1.3:CRS84" } },
"features": [
{ "type": "Feature", "properties": { "ID": 0 }, "geometry": { "type": "MultiPolygon", "coordinates": [ [ [ [ -78.802658904439966, 36.208889444898773 ], [ -78.802378911776955, 36.22007534358098 ], [ -78.802343466324103, 36.221491247828752 ], [ -78.802336345609476, 36.221947182435066 ], [ -78.802325802515227, 36.222623076884403 ], [ -78.802324360687336, 36.222726876936775 ], [ -78.802356824182368, 36.223446947330018 ], [ -78.802358295590608, 36.22347956366665 ], [ -78.802359723721779, 36.223511234587647 ], [ -78.802331161558541, 36.224925637293815 ], [ -78.802332521270358, 36.225365323849125 ], [ -78.802336104495225, 36.226528662670496 ], [ -78.802336233671625, 36.22711063151101 ], [ -78.802336555191573, 36.228372878204198 ], [ -78.802337320864865, 36.231524108721949 ], [ -78.802337859690851, 36.233704968701197 ], [ -78.802338416517216, 36.235796142661847 ], [ -78.802338459413662, 36.23594343370992 ], [ -78.8023384608573, 36.235950540432746 ], [ -78.802338497829425, 36.236080327805595 ], [ -78.869170979789075, 36.237563372272334 ], [ -78.874730279422636, 36.237685091345881 ], [ -78.888517091544827, 36.237985859127562 ], [ -78.912866390183453, 36.238513257238615 ], [ -78.925974454375293, 36.23879516837443 ], [ -78.930457824608695, 36.2388912677077 ], [ -78.930651271384946, 36.238895410112491 ], [ -78.93350956222838, 36.238956588415689 ], [ -78.933742095236227, 36.238985826955584 ], [ -78.933799789203476, 36.238986256458141 ], [ -78.935480034100138, 36.238998722890074 ], [ -78.944898882799279, 36.23919969237631 ], [ -78.945168538762019, 36.239205437588289 ], [ -78.945222542490384, 36.239206586411662 ], [ -78.945271170986629, 36.2392076228669 ], [ -78.945508511086572, 36.23921267610838 ], [ -78.950600015939443, 36.23932098606533 ], [ -78.950637029479665, 36.239110132338432 ], [ -78.950677663092819, 36.2388786727767 ], [ -78.952119809628215, 36.23066182202362 ], [ -78.952268062913333, 36.229817043681948 ], [ -78.952306333283417, 36.229599071464719 ], [ -78.952561158502377, 36.228146793805017 ], [ -78.953797658340889, 36.221099889855864 ], [ -78.953872380341764, 36.220674005539074 ], [ -78.95591891770826, 36.20900773218893 ], [ -78.955953360002923, 36.208811401083274 ], [ -78.956036320499578, 36.208338397192911 ], [ -78.957454393599178, 36.200252192977551 ], [ -78.957516294963469, 36.199899189288125 ], [ -78.957550423860411, 36.199704642076071 ], [ -78.957938679333481, 36.197490566887794 ], [ -78.959775483567924, 36.187013705877163 ], [ -78.959876647529839, 36.186436595773429 ], [ -78.959922318496311, 36.186176069977662 ], [ -78.960000373762966, 36.185730774270063 ], [ -78.961326627092646, 36.178164028665783 ], [ -78.96598288608287, 36.151586824193622 ], [ -78.966137366748512, 36.150704861494376 ], [ -78.966169873388552, 36.150519248101453 ], [ -78.966211313204738, 36.150282627465991 ], [ -78.966262578274979, 36.149989848461622 ], [ -78.970491422443402, 36.125835640884723 ], [ -78.971302349535975, 36.121202182180895 ], [ -78.971393984063809, 36.120678525973275 ], [ -78.971422549606984, 36.120515336670827 ], [ -78.971465398810679, 36.120270566201761 ], [ -78.972702836525016, 36.113198469136343 ], [ -78.972785261862398, 36.112727412824434 ], [ -78.972819113288736, 36.112534034408888 ], [ -78.974321851171794, 36.103944258902366 ], [ -78.974370887718493, 36.103663886450356 ], [ -78.974411581766745, 36.103431199173507 ], [ -78.974740915964077, 36.101548436699872 ], [ -78.974747871517195, 36.101508673875543 ], [ -78.976393246675627, 36.092100884144152 ], [ -78.976399230693829, 36.092066678813431 ], [ -78.976736249740128, 36.090139417335493 ], [ -78.976870765668323, 36.08937017784023 ], [ -78.977375448090299, 36.086483824698071 ], [ -78.977488359315984, 36.085838111450364 ], [ -78.97754150969206, 36.085534085082692 ], [ -78.980072317550608, 36.071056625577022 ], [ -78.980958914616849, 36.065983651130587 ], [ -78.981105343319811, 36.065145808870611 ], [ -78.981147511272965, 36.064904398039793 ], [ -78.981155450872649, 36.064858946613455 ], [ -78.982606500330476, 36.056554532715325 ], [ -78.982608116146011, 36.056545294218068 ], [ -78.985766155398991, 36.038465660322977 ], [ -78.985801129758769, 36.038265266968423 ], [ -78.985815897661453, 36.038180701836581 ], [ -78.985860649940776, 36.037924421656207 ], [ -78.986013308047973, 36.037050303356637 ], [ -78.986826410678447, 36.03239396159578 ], [ -78.986856166489375, 36.032223593270245 ], [ -78.986943570712441, 36.031722953417031 ], [ -78.988482963748169, 36.022905482105422 ], [ -78.988509354849512, 36.022754211087666 ], [ -78.988527840109697, 36.022648252150397 ], [ -78.988618642315458, 36.02212807819572 ], [ -78.990580739923715, 36.010886407060987 ], [ -78.990680345843927, 36.010315628105062 ], [ -78.990708935401202, 36.010151795043058 ], [ -78.990948403330137, 36.008779650673155 ], [ -78.991154336289952, 36.007599330599234 ], [ -78.991305424544834, 36.006733381161453 ], [ -78.99392878745482, 35.991696666555143 ], [ -78.994045695081027, 35.991026162514125 ], [ -78.994170411397647, 35.990311155386209 ], [ -78.994199122126233, 35.990146633447289 ], [ -78.994713747549724, 35.987196107583408 ], [ -78.994724151322202, 35.98713645795501 ], [ -78.995160188460176, 35.984636330382145 ], [ -78.995273321775827, 35.983987333054621 ], [ -78.995354129996841, 35.983524065040719 ], [ -78.996022913421172, 35.979688969833681 ], [ -78.996116762318138, 35.979150842514855 ], [ -78.996152766676829, 35.978944426367782 ], [ -78.996933904266825, 35.974464383451036 ], [ -78.999232697299192, 35.961277353543494 ], [ -78.999274262290783, 35.96103879344335 ], [ -78.999398717430594, 35.960324816356163 ], [ -79.000726853799435, 35.952703757389337 ], [ -79.000737060248611, 35.952645185298493 ], [ -79.000963630072775, 35.951344943270357 ], [ -79.001144642155722, 35.950306113256275 ], [ -79.001301901155571, 35.949403622692323 ], [ -79.001947925701671, 35.945695856891213 ], [ -79.002047202349658, 35.945125987964175 ], [ -79.002120906716954, 35.944702954931799 ], [ -79.00215424614278, 35.944511533624222 ], [ -79.004403687211138, 35.931597763157676 ], [ -79.004435833745461, 35.931413263178236 ], [ -79.004494081991808, 35.93107879472273 ], [ -79.009261787633505, 35.903694087402407 ], [ -79.009456320363199, 35.902576326223297 ], [ -79.009500228364587, 35.902324029437388 ], [ -79.00950107636578, 35.90231915691475 ], [ -79.009547156108084, 35.902054381345692 ], [ -79.009678616304782, 35.901298785825588 ], [ -79.010042674668028, 35.899206806234751 ], [ -79.010062960892512, 35.8990902277949 ], [ -79.010080267122774, 35.898990769908465 ], [ -79.010108712613402, 35.898827320137215 ], [ -79.01561165542789, 35.867191933328535 ], [ -79.015619563960797, 35.867146465393667 ], [ -79.015876703579409, 35.865667595471294 ], [ -79.016209271872782, 35.863754833386693 ], [ -79.016301402838522, 35.863224950734455 ], [ -79.016302666971683, 35.863217669718786 ], [ -79.016303862537555, 35.863210801515919 ], [ -79.007235085409775, 35.863616796599182 ], [ -79.000000010776418, 35.863940194033816 ], [ -78.983124976710911, 35.864692836312287 ], [ -78.966249627663785, 35.865443144234177 ], [ -78.965127540999831, 35.865492965220731 ], [ -78.961302610767433, 35.865662660729512 ], [ -78.949373966816651, 35.866191115933908 ], [ -78.946973041243623, 35.866297355991144 ], [ -78.943727208024796, 35.866440870260341 ], [ -78.934408884281794, 35.866852408659568 ], [ -78.934209870776286, 35.866861190252955 ], [ -78.933993983376411, 35.866870714088762 ], [ -78.93328850036059, 35.866901839369845 ], [ -78.932953471342174, 35.866916619313045 ], [ -78.932770473196086, 35.866924691715248 ], [ -78.93269450974627, 35.866928044176611 ], [ -78.932498769193842, 35.866936698599645 ], [ -78.91562170915887, 35.867680054018898 ], [ -78.910848971709811, 35.867889844370879 ], [ -78.910786899656244, 35.867892570530586 ], [ -78.906076210599679, 35.868099444327306 ], [ -78.904358386833806, 35.868074698499093 ], [ -78.904285586641564, 35.868073649037385 ], [ -78.903792385734761, 35.868066538954942 ], [ -78.902503844453292, 35.868047960741194 ], [ -78.899823146041342, 35.868009277759072 ], [ -78.898745648620931, 35.867993733441786 ], [ -78.894284533324893, 35.867929273265162 ], [ -78.893088607150332, 35.867911940364188 ], [ -78.892401268454407, 35.867902039715446 ], [ -78.892243470579587, 35.867899767880687 ], [ -78.892214359461519, 35.867899364504567 ], [ -78.891600393985115, 35.867890851805619 ], [ -78.891370681968354, 35.867887664960207 ], [ -78.890488783802709, 35.867875430442851 ], [ -78.89026572588125, 35.867872186201303 ], [ -78.887939186394732, 35.867838319092755 ], [ -78.88763833165396, 35.867833936786965 ], [ -78.886003009051095, 35.867810057522455 ], [ -78.883909641412231, 35.867779449823594 ], [ -78.883824611593013, 35.867778206157148 ], [ -78.88187026853366, 35.867749598483947 ], [ -78.880326856514799, 35.867726983123568 ], [ -78.877391463866772, 35.867683985861895 ], [ -78.874881400329571, 35.867647150503743 ], [ -78.870511199755299, 35.867582871123375 ], [ -78.870474031083816, 35.867582325114057 ], [ -78.869408206111871, 35.8675666250207 ], [ -78.868845211834966, 35.867558329035333 ], [ -78.868823787849522, 35.867558012164736 ], [ -78.86880671443059, 35.867557762161255 ], [ -78.868014983725473, 35.867546092107915 ], [ -78.867975381250758, 35.867545508453055 ], [ -78.86669396441259, 35.867526610064402 ], [ -78.864994992420009, 35.867501561110096 ], [ -78.864837074336322, 35.867499231147676 ], [ -78.86267486113978, 35.867467315559949 ], [ -78.856715513184426, 35.867379231242495 ], [ -78.85396186880314, 35.867338431448275 ], [ -78.851328164462657, 35.867299343526582 ], [ -78.849466500213623, 35.867271675178337 ], [ -78.848134074816116, 35.86725183650239 ], [ -78.845537366358357, 35.867213081485019 ], [ -78.843455554258313, 35.867181993198415 ], [ -78.840140140893752, 35.86713244546069 ], [ -78.837419713116049, 35.86709173479327 ], [ -78.835373276048884, 35.867061077549963 ], [ -78.831701574608161, 35.867005984267962 ], [ -78.831244764273293, 35.866999126725098 ], [ -78.829968275495602, 35.866979953808205 ], [ -78.829820634366683, 35.867336088475646 ], [ -78.829752339817446, 35.867500825286889 ], [ -78.829406258411296, 35.868335610023706 ], [ -78.829320394408825, 35.868542740671273 ], [ -78.828982915429421, 35.869356834492308 ], [ -78.828863924109854, 35.86964387234346 ], [ -78.828266387022211, 35.871085222613125 ], [ -78.82821258623666, 35.871214999556713 ], [ -78.827394071582091, 35.87318940254476 ], [ -78.827268500268161, 35.873492297722827 ], [ -78.827107502962647, 35.873880635050128 ], [ -78.826861436751074, 35.874474158502082 ], [ -78.826712137322829, 35.874834267254073 ], [ -78.826619882022058, 35.875056789943876 ], [ -78.82593953135779, 35.876697838971467 ], [ -78.824869299059912, 35.879279162942453 ], [ -78.824153153143911, 35.881006357987118 ], [ -78.823739952359787, 35.882002960486084 ], [ -78.823406009229473, 35.88280837771584 ], [ -78.822815989591248, 35.884231375672336 ], [ -78.822748819926574, 35.884393362042744 ], [ -78.822082393098938, 35.88600047733469 ], [ -78.821220497542328, 35.888078870678065 ], [ -78.820158890882794, 35.890638416233791 ], [ -78.819473396729279, 35.892291100098063 ], [ -78.819316569801543, 35.892669192821018 ], [ -78.819303021945942, 35.892701854255051 ], [ -78.819176490095572, 35.893006911605546 ], [ -78.818674999584744, 35.89421592946745 ], [ -78.818657990916279, 35.894256920077268 ], [ -78.818384566848508, 35.894915862615406 ], [ -78.818050311699807, 35.8957213972216 ], [ -78.817561327255376, 35.896899377933636 ], [ -78.817085500329767, 35.898046223111322 ], [ -78.816557544692103, 35.899318727267769 ], [ -78.81552993524916, 35.901795363325135 ], [ -78.814282574351907, 35.904802668750648 ], [ -78.813781557041281, 35.906010519391366 ], [ -78.813481175318643, 35.906734320016049 ], [ -78.813317201370424, 35.907129425066444 ], [ -78.813191970134071, 35.907431223854637 ], [ -78.812946930507209, 35.908021747721179 ], [ -78.812931094716546, 35.908059907232676 ], [ -78.812625232894788, 35.908796917167209 ], [ -78.812212679649264, 35.909790986196349 ], [ -78.81160489967651, 35.911255396093871 ], [ -78.810775530984685, 35.913253646930613 ], [ -78.810002601562744, 35.915115801682013 ], [ -78.809567385130279, 35.91616437920262 ], [ -78.807783809923507, 35.920461422135546 ], [ -78.807721443435355, 35.920611669907643 ], [ -78.807607545600689, 35.920886058208282 ], [ -78.80747578331875, 35.921203469728091 ], [ -78.807101837175409, 35.922104268189358 ], [ -78.806765325771821, 35.922914870095525 ], [ -78.806705518891633, 35.923058934746059 ], [ -78.806112419588899, 35.924487455635017 ], [ -78.804842648434416, 35.927545664364786 ], [ -78.804220113474585, 35.927421271462919 ], [ -78.803677489784434, 35.927312841563499 ], [ -78.802762565198861, 35.927129833166738 ], [ -78.802139048687593, 35.927005226143443 ], [ -78.801146661202878, 35.92680689221023 ], [ -78.800903581790834, 35.926758590084312 ], [ -78.799535930176702, 35.926486822453832 ], [ -78.79734555914122, 35.926047303534624 ], [ -78.797257736660455, 35.926029680585827 ], [ -78.797250425595351, 35.926028214645122 ], [ -78.797040941241221, 35.925986175968241 ], [ -78.796710002947961, 35.925920026827164 ], [ -78.796701575459309, 35.925918343583383 ], [ -78.792971494630621, 35.925172690494911 ], [ -78.791596414751808, 35.924897774653054 ], [ -78.789397183361132, 35.924458053388761 ], [ -78.787970223843615, 35.924172734024467 ], [ -78.786850700213336, 35.923948845108157 ], [ -78.786302448317841, 35.923839198583387 ], [ -78.785774862904162, 35.92373368227576 ], [ -78.785416433743791, 35.923661994991512 ], [ -78.784291340403385, 35.923436912764572 ], [ -78.783653167921443, 35.923309236074374 ], [ -78.782896846836763, 35.923157918418703 ], [ -78.781112583015641, 35.922800916820741 ], [ -78.780466751273366, 35.922671697300963 ], [ -78.780247478338893, 35.922627823026836 ], [ -78.776995727627892, 35.921977142043467 ], [ -78.775379523906622, 35.921653703385196 ], [ -78.772028584691654, 35.920983028062459 ], [ -78.771259375718998, 35.920829058813091 ], [ -78.764522698005663, 35.919480175399833 ], [ -78.764501046295649, 35.919475838915844 ], [ -78.764251122678957, 35.919425789271706 ], [ -78.764204260166721, 35.919416404508389 ], [ -78.764191697945662, 35.919413887234121 ], [ -78.763589398619061, 35.919293267879212 ], [ -78.760400716712638, 35.91865463054846 ], [ -78.759156935211479, 35.91840551378899 ], [ -78.759143163291895, 35.918437189028424 ], [ -78.759142515004172, 35.918441306701986 ], [ -78.75914100265436, 35.918450930530611 ], [ -78.759139933085976, 35.918457726044124 ], [ -78.759139134541599, 35.918462812321401 ], [ -78.759137133654278, 35.918477231017 ], [ -78.759137081130419, 35.918494839662635 ], [ -78.759137038110126, 35.918509262222202 ], [ -78.759146826855343, 35.918522111584188 ], [ -78.759160607093136, 35.918533346477766 ], [ -78.759176315604918, 35.918542992573244 ], [ -78.759201857920687, 35.918562274067789 ], [ -78.759213649595608, 35.918571912429805 ], [ -78.759225450859461, 35.918578335863245 ], [ -78.759235275083753, 35.918591185287731 ], [ -78.759237204285597, 35.918600804189737 ], [ -78.759237175617287, 35.918610419229076 ], [ -78.759237151783466, 35.918618412834611 ], [ -78.759231212937337, 35.918628016213916 ], [ -78.759219349576043, 35.918642415451927 ], [ -78.759211427823971, 35.918660037412074 ], [ -78.759205488971716, 35.918669640789972 ], [ -78.759197582744505, 35.918682426390141 ], [ -78.759191610379801, 35.918703266240072 ], [ -78.759187581631593, 35.918728889532169 ], [ -78.759191443172497, 35.918759335039731 ], [ -78.759191404911178, 35.91877216500572 ], [ -78.75919131413761, 35.918802603615333 ], [ -78.75918925870802, 35.918823422351409 ], [ -78.759181332181981, 35.918842636900521 ], [ -78.759157638802265, 35.918860227732857 ], [ -78.759135948335782, 35.91887460756756 ], [ -78.759118203406899, 35.918879380091248 ], [ -78.759063019212178, 35.918890479753458 ], [ -78.759033468227173, 35.918890421408506 ], [ -78.758999257524309, 35.918891256959625 ], [ -78.75899417108181, 35.918886255501704 ], [ -78.758990161807191, 35.91888231339864 ], [ -78.758974423656625, 35.918871074620469 ], [ -78.758958674894373, 35.918863021022311 ], [ -78.758946883207386, 35.918853382636691 ], [ -78.758937051311534, 35.91885498465939 ], [ -78.758926400135195, 35.918857849590331 ], [ -78.758901561436815, 35.918864529646356 ], [ -78.758877882431449, 35.918877284063562 ], [ -78.758856142096903, 35.91889647129755 ], [ -78.758848205883297, 35.918918900751528 ], [ -78.758832362480661, 35.918942907180714 ], [ -78.758826399687933, 35.918960504143598 ], [ -78.758820654808943, 35.918976739668715 ], [ -78.758818343866295, 35.918983650795539 ], [ -78.758814474795514, 35.919006963448979 ], [ -78.758814388722598, 35.919035780622089 ], [ -78.758798530926683, 35.919064594564702 ], [ -78.758774807566851, 35.919091800356611 ], [ -78.758757024324609, 35.919109373950086 ], [ -78.758737278346942, 35.919128565103797 ], [ -78.758727387072113, 35.919138160643243 ], [ -78.758707679332531, 35.919144550669429 ], [ -78.758689918844169, 35.919154130646781 ], [ -78.75868002390645, 35.919165319677774 ], [ -78.758664257859436, 35.919174903595106 ], [ -78.758650400975199, 35.919189298833011 ], [ -78.758642483891791, 35.919205299319238 ], [ -78.758640492506885, 35.919216503076086 ], [ -78.758634548699177, 35.919227727857638 ], [ -78.758630514987502, 35.919254943718258 ], [ -78.758622570260002, 35.919280559241763 ], [ -78.758620558541878, 35.919298192848821 ], [ -78.758620501057919, 35.919317422922255 ], [ -78.758612549609822, 35.919333422436551 ], [ -78.758608579999617, 35.919351052170434 ], [ -78.758600633306926, 35.919365459091935 ], [ -78.758578952214819, 35.919376624799838 ], [ -78.758553323537498, 35.919386189191407 ], [ -78.758521731131736, 35.919402141925204 ], [ -78.758511856111767, 35.919418138527661 ], [ -78.758497979930937, 35.919438962698358 ], [ -78.758486097174625, 35.919459762871924 ], [ -78.758486049274197, 35.919475778017834 ], [ -78.758495881997291, 35.919485412569124 ], [ -78.758533206568856, 35.919517546648748 ], [ -78.758558826515113, 35.919522404883786 ], [ -78.758592261115211, 35.919533679620663 ], [ -78.758648105882884, 35.919564578560383 ], [ -78.758747662598367, 35.919609286219774 ], [ -78.758761393143743, 35.919625329502963 ], [ -78.758761335693094, 35.919644559574103 ], [ -78.758761283000354, 35.919662197053505 ], [ -78.758761230393759, 35.919679805691253 ], [ -78.758757221691909, 35.919699027951495 ], [ -78.758755181266679, 35.919726276593309 ], [ -78.758774789719354, 35.919753539186281 ], [ -78.758788522188794, 35.919780818102517 ], [ -78.758806147695282, 35.919816099261325 ], [ -78.758819869795758, 35.919835356563446 ], [ -78.758833562075253, 35.919864229797824 ], [ -78.758841369164443, 35.919885068009179 ], [ -78.758855120875396, 35.919905918867592 ], [ -78.758870786549096, 35.919929987549303 ], [ -78.758880601284076, 35.919946051020425 ], [ -78.758880534347682, 35.919968467173597 ], [ -78.758864723109767, 35.919981265969682 ], [ -78.758841053286559, 35.919990834290246 ], [ -78.758819372059719, 35.920002000038274 ], [ -78.75879962477056, 35.920021191193541 ], [ -78.758791649324152, 35.920045213158048 ], [ -78.75878174555595, 35.920070824812505 ], [ -78.758783636498535, 35.920093244834426 ], [ -78.758783583813056, 35.920110881409613 ], [ -78.758783531124877, 35.920128518885974 ], [ -78.758783483280354, 35.920144534929335 ], [ -78.758769647345986, 35.920163737762536 ], [ -78.758753840899288, 35.920174914209177 ], [ -78.758737997222198, 35.920198920614986 ], [ -78.758737920640272, 35.92022455169144 ], [ -78.758743763874108, 35.920247008367582 ], [ -78.758745680664916, 35.9202726424828 ], [ -78.758751523904394, 35.92029509915821 ], [ -78.758751432963308, 35.920325537750273 ], [ -78.758749372620628, 35.920347949959776 ], [ -78.758747346539977, 35.920370391078443 ], [ -78.758727605096468, 35.920387960788879 ], [ -78.758705869081254, 35.920405554492852 ], [ -78.758688128549977, 35.920408734360095 ], [ -78.758670411993918, 35.920403891783103 ], [ -78.758658455689073, 35.92039996009418 ], [ -78.75865225558438, 35.920397923508808 ], [ -78.75863107632307, 35.920389391358285 ], [ -78.758611410363812, 35.920381329973033 ], [ -78.75857394078254, 35.920386063400137 ], [ -78.758546339494799, 35.920400431429833 ], [ -78.758522635991582, 35.920421208212417 ], [ -78.758493011444784, 35.920445187316112 ], [ -78.758477148491053, 35.920475594694381 ], [ -78.758477066976212, 35.920502847200666 ], [ -78.758477513392634, 35.920508817406983 ], [ -78.758478059989031, 35.920516117232005 ], [ -78.758478983688477, 35.920528481317653 ], [ -78.758482799974828, 35.92056214168219 ], [ -78.758482723311559, 35.92058777275502 ], [ -78.758474791677898, 35.920608580738062 ], [ -78.758455050033277, 35.920626178343099 ], [ -78.758425406241045, 35.920656558436853 ], [ -78.758409557604182, 35.920682158288059 ], [ -78.75840755542356, 35.92069657695761 ], [ -78.758397636256532, 35.920715787498644 ], [ -78.758387751434299, 35.920734998106681 ], [ -78.758373904576317, 35.920757415813419 ], [ -78.758373827881002, 35.920783045983065 ], [ -78.758379651900171, 35.920811903679905 ], [ -78.758393364534911, 35.920834347106073 ], [ -78.758399207719762, 35.920856802892338 ], [ -78.758416881206003, 35.920876068955835 ], [ -78.758430593862045, 35.920898512377264 ], [ -78.758430536331716, 35.920917742439237 ], [ -78.758416679921908, 35.920943346232342 ], [ -78.758394910152134, 35.920972148400232 ], [ -78.758385443568585, 35.920987477927447 ], [ -78.758373156586472, 35.921007379581745 ], [ -78.758363199065357, 35.921039391231218 ], [ -78.758353259581654, 35.921065002771307 ], [ -78.758345252184782, 35.921111469752404 ], [ -78.758341103177926, 35.921177145704661 ], [ -78.758332830976983, 35.921311713499634 ], [ -78.758328649427412, 35.921388625910161 ], [ -78.758292698654401, 35.921563220663614 ], [ -78.75823319176817, 35.921697686050301 ], [ -78.758165115541559, 35.921781610161297 ], [ -78.758150137863808, 35.921800074287738 ], [ -78.758103047403992, 35.921861005383491 ], [ -78.75809743209237, 35.921868272263247 ], [ -78.758090803401572, 35.921876849429111 ], [ -78.758072078632949, 35.921898494922736 ], [ -78.758049286438833, 35.921924842551391 ], [ -78.757992065160536, 35.921961596834798 ], [ -78.757968345540689, 35.921987180107678 ], [ -78.757940719632018, 35.922009542488439 ], [ -78.757918969703653, 35.922031943557279 ], [ -78.757890306450747, 35.922037359401259 ], [ -78.757885445903199, 35.922038278099365 ], [ -78.757878876576342, 35.922039240274913 ], [ -78.757863787968006, 35.92204144917276 ], [ -78.757845086251976, 35.922053896894816 ], [ -78.757842363392101, 35.922058069024423 ], [ -78.757834130123541, 35.922076636622535 ], [ -78.757827428429877, 35.92209106668021 ], [ -78.757819019255876, 35.922109169757782 ], [ -78.757816283478434, 35.922115061544268 ], [ -78.757800351509204, 35.922167913789288 ], [ -78.75777859266833, 35.922204709499155 ], [ -78.757756788704341, 35.922244720057193 ], [ -78.757740925760203, 35.922286362943801 ], [ -78.757713168030534, 35.92234078429896 ], [ -78.757701183661183, 35.92239523696319 ], [ -78.757669519585832, 35.922446436510363 ], [ -78.757620180623078, 35.922478397821635 ], [ -78.75755501643502, 35.922527937301425 ], [ -78.757481920082043, 35.922598284648693 ], [ -78.75742849367964, 35.922675099127929 ], [ -78.75730987069737, 35.922823870025937 ], [ -78.757244580748932, 35.922915083448892 ], [ -78.757185326472964, 35.922964634479477 ], [ -78.757139371972784, 35.923001830772748 ], [ -78.757128074119478, 35.923010975424454 ], [ -78.757123169776847, 35.923017590228099 ], [ -78.757108600291104, 35.923037233933393 ], [ -78.757086531869277, 35.92306698973109 ], [ -78.757052455899768, 35.923117834601335 ], [ -78.757034986741118, 35.923169439872666 ], [ -78.757030959158456, 35.923206158071693 ], [ -78.757030919811342, 35.923219234069606 ], [ -78.75703087202146, 35.923235115800829 ], [ -78.757020889552066, 35.923275149747042 ], [ -78.757010934899853, 35.923305568667608 ], [ -78.756995124440877, 35.923329574887674 ], [ -78.756989122310401, 35.923360001675597 ], [ -78.756971236365942, 35.923411255497392 ], [ -78.756949431676119, 35.923451265893249 ], [ -78.756921809781431, 35.923472034540559 ], [ -78.7568784093814, 35.923494392290259 ], [ -78.756833031176697, 35.923511911505187 ], [ -78.756809708923086, 35.923524490459627 ], [ -78.756797508937751, 35.923531070882866 ], [ -78.756769877294914, 35.92355505351518 ], [ -78.756757533109479, 35.923568669202432 ], [ -78.75674812182487, 35.923579047853103 ], [ -78.756734240257657, 35.923612672960324 ], [ -78.756743980990777, 35.923641537611175 ], [ -78.756745868257809, 35.923676787647537 ], [ -78.756747725976325, 35.923710444124467 ], [ -78.756741675472625, 35.923756886917047 ], [ -78.756729747067283, 35.923792109414549 ], [ -78.756707987216643, 35.923828932851499 ], [ -78.7566921374126, 35.923854532449532 ], [ -78.756664426704049, 35.923892937514303 ], [ -78.756613089870953, 35.923937696497866 ], [ -78.756571546868216, 35.923993683571062 ], [ -78.756549785226895, 35.924019298396658 ], [ -78.7565280639988, 35.924043265720812 ], [ -78.756482674526666, 35.924064025858002 ], [ -78.756465267825519, 35.924072691382392 ], [ -78.75644417668957, 35.924083191810574 ], [ -78.756431395492854, 35.924089554724056 ], [ -78.756386006051414, 35.924110287786014 ], [ -78.756342610050126, 35.924131024810784 ], [ -78.756318909693775, 35.924150207646363 ], [ -78.756305038573743, 35.924180646620776 ], [ -78.756305005623545, 35.924191564011338 ], [ -78.756304979068631, 35.924200362456432 ], [ -78.756304922580227, 35.92421907875547 ], [ -78.756281187164461, 35.924249498029766 ], [ -78.75624373668164, 35.924259010374548 ], [ -78.756129914995583, 35.92444888714568 ], [ -78.756156743854007, 35.924489818342302 ], [ -78.756161450546955, 35.924496970553754 ], [ -78.756188414043251, 35.92453809488994 ], [ -78.756118657708328, 35.92464223780722 ], [ -78.756046197114443, 35.924724837796489 ], [ -78.75603927945285, 35.924733917190842 ], [ -78.756021795148555, 35.924747664929136 ], [ -78.756017381039953, 35.924751132421541 ], [ -78.755960932731142, 35.92479551226802 ], [ -78.75594590538465, 35.924807327111722 ], [ -78.755863948097698, 35.924846997078276 ], [ -78.755788797316171, 35.924908464141957 ], [ -78.755781501183293, 35.924914431474356 ], [ -78.755767584319528, 35.924925813189574 ], [ -78.755733019337839, 35.925026415679973 ], [ -78.75572976160322, 35.925035898952991 ], [ -78.755725302536035, 35.925040299190556 ], [ -78.755651072147501, 35.925113538090713 ], [ -78.755608955445169, 35.925155092042687 ], [ -78.755415487469875, 35.92534597396152 ], [ -78.75539356923764, 35.925345491102441 ], [ -78.755344969339461, 35.925344404062727 ], [ -78.755144494512223, 35.925539381424429 ], [ -78.755084505808867, 35.92558486415389 ], [ -78.755004817622847, 35.925722117365837 ], [ -78.754873918848361, 35.925761715443869 ], [ -78.754745174147658, 35.925903458462479 ], [ -78.754561123619865, 35.926083412515752 ], [ -78.754499053006015, 35.926191251720951 ], [ -78.754411729538774, 35.926273051090895 ], [ -78.754342956683416, 35.926385959154622 ], [ -78.754351070191262, 35.926427924694352 ], [ -78.754340225033729, 35.926484329657711 ], [ -78.754337651150649, 35.926497702473696 ], [ -78.754230328138092, 35.926736215544494 ], [ -78.754194551520726, 35.926794218760293 ], [ -78.754174176510645, 35.926863626489911 ], [ -78.754188988017674, 35.926902171570674 ], [ -78.754115596596591, 35.927033667601336 ], [ -78.75408664749304, 35.927090063996893 ], [ -78.754080736157817, 35.927101507607532 ], [ -78.754071723094043, 35.927119875062594 ], [ -78.754011877499948, 35.927241831016978 ], [ -78.753958389986849, 35.927381334540932 ], [ -78.753873506181193, 35.927460144293512 ], [ -78.753779110137501, 35.927512699764016 ], [ -78.753726228122318, 35.927597370223388 ], [ -78.753673808595011, 35.927654271646752 ], [ -78.753610463921646, 35.927723094113915 ], [ -78.753593824011617, 35.927741219906963 ], [ -78.753579488912123, 35.927756849244439 ], [ -78.753549803163722, 35.927788986433264 ], [ -78.753400896226069, 35.927950109329409 ], [ -78.753097188988164, 35.92829973131812 ], [ -78.752968198123867, 35.928475398557538 ], [ -78.752837426038582, 35.928626035663839 ], [ -78.752781072551144, 35.92870422101381 ], [ -78.752767942635685, 35.928722439421186 ], [ -78.752705235481557, 35.928809443695521 ], [ -78.752314437792194, 35.92932657476473 ], [ -78.752149202708551, 35.929666558162211 ], [ -78.752148140222289, 35.929671528471424 ], [ -78.752139261473857, 35.929714131971053 ], [ -78.752133849633125, 35.929722631046339 ], [ -78.752128358716789, 35.929730897425586 ], [ -78.752022288320518, 35.929890715718045 ], [ -78.751773853905647, 35.930308521571767 ], [ -78.751683276908068, 35.930457838468371 ], [ -78.751551489722246, 35.930683716954945 ], [ -78.75154399066426, 35.930694855261777 ], [ -78.751472222550873, 35.930801573432852 ], [ -78.751360783788456, 35.931011696958315 ], [ -78.751198166492301, 35.931289131382428 ], [ -78.751168514866166, 35.931473790257641 ], [ -78.75115271504994, 35.931572360094918 ], [ -78.751139516947362, 35.931654493746066 ], [ -78.751136418312456, 35.931669264215358 ], [ -78.751134406154449, 35.931678859841789 ], [ -78.751062896325749, 35.932019793244798 ], [ -78.75090422639741, 35.932177376089001 ], [ -78.750597955193854, 35.932407704729847 ], [ -78.750453691713162, 35.932559493117346 ], [ -78.750053964119999, 35.932775013814776 ], [ -78.749866553915709, 35.932929570245648 ], [ -78.749715195316838, 35.93303744277523 ], [ -78.749625135823521, 35.933104508422019 ], [ -78.749519869078242, 35.933119429749588 ], [ -78.749506117967513, 35.93313129686041 ], [ -78.749426049903235, 35.933200525247571 ], [ -78.749362145317761, 35.933231519465743 ], [ -78.749336111608145, 35.933223778836222 ], [ -78.749292051641646, 35.933210634849686 ], [ -78.7492559081644, 35.933210560607407 ], [ -78.749187726433604, 35.933248468817027 ], [ -78.749117482372199, 35.933275987995138 ], [ -78.749062154322701, 35.933286258115395 ], [ -78.749056676633984, 35.933287950307026 ], [ -78.748979147747889, 35.933312021384744 ], [ -78.748910970077986, 35.933348198053942 ], [ -78.748838662572538, 35.93335497215989 ], [ -78.74875323737659, 35.9333327641274 ], [ -78.748695959643115, 35.933296466316115 ], [ -78.748645485205799, 35.933288697750008 ], [ -78.748624977826935, 35.933289644242336 ], [ -78.748604741874715, 35.933290619230476 ], [ -78.748552394084541, 35.93330932960346 ], [ -78.748533399091727, 35.933301845751572 ], [ -78.748505025616453, 35.933290660771782 ], [ -78.748486262606605, 35.933295869467436 ], [ -78.748438457624786, 35.933309176858359 ], [ -78.748424226884296, 35.933301702808237 ], [ -78.748396673718361, 35.933287251387775 ], [ -78.748376452602884, 35.933294132573742 ], [ -78.748296413770802, 35.933321274173714 ], [ -78.748280090217619, 35.933313245999479 ], [ -78.748274120444663, 35.933310321594725 ], [ -78.748187406138598, 35.933279017312394 ], [ -78.748158758016089, 35.933280222728982 ], [ -78.7481418664226, 35.933280928743358 ], [ -78.748050296821134, 35.933279174212409 ], [ -78.748042071916402, 35.933295393215374 ], [ -78.748007970774083, 35.933290377397782 ], [ -78.747978968373118, 35.933286141806597 ], [ -78.747963053866599, 35.933287675402525 ], [ -78.747931461164484, 35.933290659255476 ], [ -78.747896640044075, 35.933289076766286 ], [ -78.74784192561431, 35.933286628484993 ], [ -78.747790419675127, 35.933262841370215 ], [ -78.747767876337335, 35.933267025480376 ], [ -78.747698001609393, 35.933219464685983 ], [ -78.747666986584932, 35.933221296904485 ], [ -78.747638404619948, 35.933222968306737 ], [ -78.747631490337369, 35.933219794961985 ], [ -78.747592903479088, 35.933201912738518 ], [ -78.747477961232974, 35.933188543988742 ], [ -78.747460664917767, 35.93316771255693 ], [ -78.747341789313822, 35.933083980220417 ], [ -78.747315256648207, 35.933089144713378 ], [ -78.747295213311034, 35.933093031976981 ], [ -78.747278780090213, 35.933120084662228 ], [ -78.747243284851649, 35.933117922858663 ], [ -78.747235517702549, 35.93311743990229 ], [ -78.747206460810304, 35.93308710602971 ], [ -78.747211284614437, 35.93302738609998 ], [ -78.747197836201593, 35.933022112693109 ], [ -78.747141135921794, 35.932999885505524 ], [ -78.747118458711526, 35.933003657325543 ], [ -78.747071718239752, 35.933011445036428 ], [ -78.74706037253371, 35.93304743198685 ], [ -78.747047086861187, 35.933056009147151 ], [ -78.747041539290706, 35.933059127858499 ], [ -78.747035874338721, 35.93305797327249 ], [ -78.747014689763162, 35.933053650003956 ], [ -78.746927541511411, 35.933035870603256 ], [ -78.746894460603713, 35.933017972533818 ], [ -78.74686702224092, 35.933021102624402 ], [ -78.746815052288724, 35.933027038941361 ], [ -78.746792160115348, 35.933024079361267 ], [ -78.746771934387311, 35.933021455183763 ], [ -78.746750936557078, 35.93300671415286 ], [ -78.746744599017774, 35.932981151908358 ], [ -78.746711196550592, 35.932990175795311 ], [ -78.746681885734688, 35.932998109482519 ], [ -78.746666572039629, 35.932991127791254 ], [ -78.74665513832683, 35.932985883742148 ], [ -78.746580560320595, 35.932973201786723 ], [ -78.74657136243988, 35.932976259721549 ], [ -78.746464882052308, 35.933011916566656 ], [ -78.746383947527605, 35.933022792034066 ], [ -78.746337475426472, 35.933063298942528 ], [ -78.746327652874669, 35.933071876912379 ], [ -78.746240239354393, 35.933123726247651 ], [ -78.746177034167431, 35.933135984974165 ], [ -78.746161480697552, 35.933151693799658 ], [ -78.746040464953239, 35.933224518414669 ], [ -78.746022844034087, 35.93323512157405 ], [ -78.745999204013216, 35.933249347140375 ], [ -78.74599205864034, 35.93325518349755 ], [ -78.745971502903203, 35.933271843573451 ], [ -78.745926432580546, 35.93332847926245 ], [ -78.745955809727363, 35.933363978541564 ], [ -78.745842153059058, 35.933403767676872 ], [ -78.745774548452431, 35.933429230962318 ], [ -78.745725619944267, 35.933456023775577 ], [ -78.745622170098059, 35.93349432339194 ], [ -78.745552368070619, 35.933509479238197 ], [ -78.745520057790756, 35.933508011263612 ], [ -78.745477483001366, 35.933530119658684 ], [ -78.745444109771199, 35.933530105043651 ], [ -78.745422221066093, 35.933530114372672 ], [ -78.745397866565497, 35.933530117653234 ], [ -78.745212581858624, 35.933585800778346 ], [ -78.745186787808635, 35.933581571221062 ], [ -78.745080844676878, 35.933564208226606 ], [ -78.745019263328331, 35.933554106740907 ], [ -78.744928135664708, 35.93350359418055 ], [ -78.744891798679106, 35.933505796723018 ], [ -78.744744760495109, 35.933516062451481 ], [ -78.744694452293459, 35.933519583158215 ], [ -78.744631725165448, 35.933508765252157 ], [ -78.744574998803628, 35.933512410380509 ], [ -78.74456327579442, 35.933513155556923 ], [ -78.744452087527009, 35.933519982690903 ], [ -78.74442626536289, 35.933524653230684 ], [ -78.7441471246091, 35.933575193667387 ], [ -78.743987051994949, 35.933594637017947 ], [ -78.743772758597359, 35.933637263100536 ], [ -78.743651193994978, 35.933688325054248 ], [ -78.743624540941454, 35.933699504655173 ], [ -78.743507780037149, 35.933748571166959 ], [ -78.743297264067792, 35.933835075924812 ], [ -78.743214551245757, 35.933894900442638 ], [ -78.743182546170488, 35.933915903648781 ], [ -78.742026831729419, 35.933909262017274 ], [ -78.741710294163695, 35.933907439859482 ], [ -78.741559248590519, 35.934074868795378 ], [ -78.740736768257122, 35.934986545614947 ], [ -78.739986859329591, 35.935817757400727 ], [ -78.739176332521069, 35.936716132885728 ], [ -78.739157275086313, 35.936737255517393 ], [ -78.737216117436631, 35.938888666421008 ], [ -78.73639652480442, 35.939796922690725 ], [ -78.735599460282359, 35.940680194804301 ], [ -78.735553917718121, 35.94073066425004 ], [ -78.735480179860147, 35.940812374583167 ], [ -78.735121295041907, 35.941210072691653 ], [ -78.735045998969085, 35.941293508954629 ], [ -78.734516281246144, 35.941880492999964 ], [ -78.734209504539436, 35.942220414112832 ], [ -78.734206622284987, 35.94222360833664 ], [ -78.734097960882664, 35.942344003752751 ], [ -78.734095034125303, 35.942347246546774 ], [ -78.732820039994849, 35.943759938314628 ], [ -78.729723422570956, 35.94719071826718 ], [ -78.729187918993503, 35.947783969791885 ], [ -78.72806001564723, 35.949033467995541 ], [ -78.728055389460948, 35.949038595061168 ], [ -78.727965389147769, 35.949138293871783 ], [ -78.727960726237356, 35.949143460508708 ], [ -78.727725096810744, 35.949404485949046 ], [ -78.727644985663886, 35.949493230620874 ], [ -78.727337921889315, 35.949833387138767 ], [ -78.727052483909773, 35.950149582562005 ], [ -78.726631622216146, 35.950615791704166 ], [ -78.72638509247102, 35.950888882664984 ], [ -78.726375054168273, 35.950899999240889 ], [ -78.726365617795636, 35.950910452011136 ], [ -78.726330784082606, 35.950949038478235 ], [ -78.725983258478976, 35.951334000400834 ], [ -78.724708052678153, 35.95274654240788 ], [ -78.723998710195815, 35.953532162469585 ], [ -78.72214155301107, 35.955589010389708 ], [ -78.720699103322403, 35.957186463791601 ], [ -78.720631182199412, 35.957261680616263 ], [ -78.720574512723275, 35.957324438477087 ], [ -78.720543147609135, 35.957359206974111 ], [ -78.720317364702254, 35.957609495664656 ], [ -78.719722019595494, 35.95826944226809 ], [ -78.719400783481376, 35.958625529682983 ], [ -78.719273661739962, 35.958766443475376 ], [ -78.718389922525418, 35.959746040086635 ], [ -78.718113215366785, 35.960052752146204 ], [ -78.717454409774362, 35.960782990817393 ], [ -78.717017749909388, 35.961266986767839 ], [ -78.716937005116151, 35.961491741537124 ], [ -78.716881015399707, 35.961647587003242 ], [ -78.715638191853984, 35.965106822723811 ], [ -78.715630580509369, 35.965128003288328 ], [ -78.715004076400078, 35.966871672381806 ], [ -78.714937526219586, 35.967056837915251 ], [ -78.71342103637231, 35.968918533150749 ], [ -78.713340532505001, 35.969160063836597 ], [ -78.71333453115713, 35.969178120542544 ], [ -78.711582265104269, 35.974449840177662 ], [ -78.711560901741038, 35.974514111705801 ], [ -78.711246839973498, 35.975460697062012 ], [ -78.711099387307371, 35.975905113195964 ], [ -78.709346939340662, 35.981186516623517 ], [ -78.709233259219062, 35.981529091131939 ], [ -78.708634679359847, 35.98333287112623 ], [ -78.708362652255701, 35.984152578240973 ], [ -78.708296882718258, 35.984350756252489 ], [ -78.708188570717084, 35.984677131764208 ], [ -78.707715633295621, 35.986105102651543 ], [ -78.706998832027821, 35.988269370108156 ], [ -78.706927271713269, 35.988485447027465 ], [ -78.70680361900294, 35.98885882089094 ], [ -78.706777056574737, 35.988939025102347 ], [ -78.706741056087523, 35.98904772944492 ], [ -78.706308854327432, 35.990352738707124 ], [ -78.706134908592873, 35.990876813447677 ], [ -78.705678672458006, 35.992251338673761 ], [ -78.705360896127715, 35.993210904578213 ], [ -78.704986130119664, 35.994342574909624 ], [ -78.704871573343695, 35.994688486208361 ], [ -78.704818229805653, 35.994849560752506 ], [ -78.702477764357965, 36.001916113813117 ], [ -78.702476309552125, 36.001920508493278 ], [ -78.70246416644423, 36.001957164426578 ], [ -78.702462715017532, 36.001961544694339 ], [ -78.702230253783483, 36.002663349214735 ], [ -78.702178824537469, 36.002818604554797 ], [ -78.700342164982615, 36.008362976992153 ], [ -78.69949112896235, 36.010931748675233 ], [ -78.699319549205995, 36.011449621942461 ], [ -78.701323314146649, 36.011365337693221 ], [ -78.707194768656194, 36.011118177867289 ], [ -78.707441260279722, 36.011107795339761 ], [ -78.719822842597338, 36.029396789371006 ], [ -78.719827428137108, 36.029403561172593 ], [ -78.719954881968633, 36.029591774223924 ], [ -78.721536870995138, 36.029120599150467 ], [ -78.721593784866698, 36.029103647143799 ], [ -78.740191330973701, 36.023562632677873 ], [ -78.740198438219736, 36.023566768378444 ], [ -78.74373118679712, 36.025622911947394 ], [ -78.748084062898755, 36.028156101432216 ], [ -78.753602744690014, 36.031367283969281 ], [ -78.754053741834767, 36.047797316299032 ], [ -78.754114828768905, 36.050022281934027 ], [ -78.754179260545811, 36.05236891362366 ], [ -78.754288299849293, 36.056339750831278 ], [ -78.75400162359162, 36.057719830366572 ], [ -78.753281641578553, 36.06118526816001 ], [ -78.752995941587727, 36.062560427382202 ], [ -78.75277189970636, 36.063638688952238 ], [ -78.752329240002737, 36.065769012068714 ], [ -78.752125681729623, 36.066748841940104 ], [ -78.751519064304659, 36.069668624209712 ], [ -78.75127661532494, 36.070835227095529 ], [ -78.754081721868218, 36.070903299663335 ], [ -78.763144191901844, 36.071122834378471 ], [ -78.77920181306537, 36.071510132737792 ], [ -78.779224807649328, 36.07161409354805 ], [ -78.77943294434364, 36.071976425609002 ], [ -78.779437032363532, 36.071983542025151 ], [ -78.779470376270339, 36.072041586642072 ], [ -78.779598851631164, 36.072142056851881 ], [ -78.77985605353561, 36.072238390394737 ], [ -78.780059422488733, 36.07224793106105 ], [ -78.780145662471384, 36.072251987650006 ], [ -78.780578565269096, 36.072211589031724 ], [ -78.781035700088026, 36.072032532963831 ], [ -78.78153541575368, 36.071566242473665 ], [ -78.781556293881764, 36.07151998267058 ], [ -78.781562349364918, 36.07150656399368 ], [ -78.78208796822922, 36.070340936225193 ], [ -78.782586026252915, 36.069968997999759 ], [ -78.782727317629266, 36.069997686236007 ], [ -78.782733800434031, 36.069999002762962 ], [ -78.783242527681921, 36.070102294670477 ], [ -78.784074346029087, 36.070288391630164 ], [ -78.784400019627356, 36.070548423049175 ], [ -78.784518489727006, 36.070646480393876 ], [ -78.784814647845849, 36.070891651142254 ], [ -78.784992302996542, 36.071038736400375 ], [ -78.78533043595003, 36.071215001744839 ], [ -78.785689891825299, 36.071402400576964 ], [ -78.786384140566327, 36.071515774772521 ], [ -78.787348478132216, 36.071673236314048 ], [ -78.78803519408001, 36.072324209211594 ], [ -78.788154381872644, 36.073122406247286 ], [ -78.788157270686199, 36.073141755620547 ], [ -78.788178941282482, 36.07328687231562 ], [ -78.787780103771922, 36.074235793098161 ], [ -78.786985321672063, 36.074830711092559 ], [ -78.786927412556238, 36.074874057493929 ], [ -78.786037340329116, 36.075540280957973 ], [ -78.786007848536002, 36.075562356750353 ], [ -78.785491383631879, 36.075948925545966 ], [ -78.785101818431542, 36.076092551789763 ], [ -78.785093164865899, 36.076095743215603 ], [ -78.784721135468644, 36.076232902875589 ], [ -78.78468271480601, 36.07679517393791 ], [ -78.786482040191274, 36.077431513463331 ], [ -78.788770532462635, 36.078743884171963 ], [ -78.789534286654188, 36.078864146428728 ], [ -78.78988243355613, 36.078817635235623 ], [ -78.790143667965793, 36.078723860451589 ], [ -78.790404937350772, 36.078630063536842 ], [ -78.790550138009266, 36.078559654704954 ], [ -78.790753386391799, 36.078465753145437 ], [ -78.791043684165828, 36.078348463101875 ], [ -78.791101819567302, 36.078301446231407 ], [ -78.791276065555778, 36.078207521285897 ], [ -78.791566298530668, 36.078113770405828 ], [ -78.791624297202191, 36.078113865642976 ], [ -78.791827377204271, 36.078090670092223 ], [ -78.791914438809144, 36.07806724890316 ], [ -78.792088441358217, 36.07806754486294 ], [ -78.792320322237316, 36.078115049672412 ], [ -78.792407201645887, 36.078162308877396 ], [ -78.792493778885373, 36.07832738547841 ], [ -78.79249335425969, 36.078492287369606 ], [ -78.792376987808552, 36.078633423098566 ], [ -78.7922606208801, 36.07877458574567 ], [ -78.79219642197684, 36.07889556613376 ], [ -78.792186805067658, 36.078913688246075 ], [ -78.792173194113701, 36.078939339779346 ], [ -78.791911458036395, 36.079221588149686 ], [ -78.79162035419607, 36.079645147013963 ], [ -78.791271062000689, 36.080139257969002 ], [ -78.791164982826558, 36.080274045425078 ], [ -78.79116018963505, 36.080280139565453 ], [ -78.79106738244667, 36.080398062077343 ], [ -78.790979829280374, 36.080609925678509 ], [ -78.790870393513131, 36.080868890455115 ], [ -78.790840872922928, 36.081069068475351 ], [ -78.790796589777315, 36.081363471513491 ], [ -78.790853858170436, 36.081646262649173 ], [ -78.790896461244699, 36.081999708690198 ], [ -78.791084070031133, 36.082341646641083 ], [ -78.79125728740236, 36.08264817686991 ], [ -78.791503241782721, 36.08287239410798 ], [ -78.791835870053603, 36.083226334641644 ], [ -78.791994817208902, 36.083438645083866 ], [ -78.792120978854911, 36.083644676491431 ], [ -78.792168102229326, 36.083721633517747 ], [ -78.792239896434864, 36.084004448397167 ], [ -78.792195585288212, 36.084310635274988 ], [ -78.792183872821596, 36.084351484031451 ], [ -78.792181951376378, 36.084358181506737 ], [ -78.792151703253893, 36.0844636782519 ], [ -78.792107362225337, 36.084781649637812 ], [ -78.792104885247468, 36.085033352574428 ], [ -78.792136584486983, 36.085260692608855 ], [ -78.792147616013196, 36.085339687234644 ], [ -78.792320996709677, 36.085587348482782 ], [ -78.792479828538035, 36.085846742378038 ], [ -78.792754890806165, 36.08603567927122 ], [ -78.792928668428004, 36.086130195786957 ], [ -78.793106512756722, 36.086214228472983 ], [ -78.793117633652969, 36.086219483502042 ], [ -78.793203861687118, 36.0862602266849 ], [ -78.793377795700621, 36.086295880895626 ], [ -78.793798252462381, 36.086331921008338 ], [ -78.794218829923452, 36.086320845648132 ], [ -78.794309975310114, 36.086291941128067 ], [ -78.794333592292773, 36.086284450968442 ], [ -78.794625208845133, 36.086191957169589 ], [ -78.794915511051556, 36.086086437520471 ], [ -78.795147761583195, 36.08600438473465 ], [ -78.795452785819265, 36.085804639258299 ], [ -78.795801201389438, 36.085663894090032 ], [ -78.796091723282885, 36.085475902919853 ], [ -78.796396654956453, 36.08531150883406 ], [ -78.796468409253166, 36.085267978397034 ], [ -78.79662903490744, 36.085170534707359 ], [ -78.796945792001793, 36.085012944353544 ], [ -78.797111916873931, 36.084921745749512 ], [ -78.797437439308297, 36.084776419240178 ], [ -78.79766414761508, 36.084729687479026 ], [ -78.797950814808559, 36.084686837786407 ], [ -78.798290732886542, 36.084671163909626 ], [ -78.798550612444643, 36.084682416182225 ], [ -78.798770375931042, 36.084747738641084 ], [ -78.799276321101445, 36.084965088178528 ], [ -78.799868621677575, 36.085273589801133 ], [ -78.800217052582326, 36.085401152630681 ], [ -78.800463375930789, 36.085483986888264 ], [ -78.800999550877052, 36.085638010393183 ], [ -78.801318409707463, 36.085709181687953 ], [ -78.801753165950942, 36.085827678637997 ], [ -78.802042821952725, 36.085981292279797 ], [ -78.802376143841585, 36.086076053492413 ], [ -78.802810990072757, 36.086159219922273 ], [ -78.803013955372251, 36.086183088341564 ], [ -78.803579375797568, 36.08624289119556 ], [ -78.803869267292953, 36.08630225258775 ], [ -78.804333088318913, 36.086397244694048 ], [ -78.804920322099846, 36.086584287411782 ], [ -78.805442056007735, 36.086726456634786 ], [ -78.805978291069863, 36.086856883620875 ], [ -78.806543678483834, 36.08694024466336 ], [ -78.806877105897968, 36.086987880420082 ], [ -78.807022038963595, 36.087023433355427 ], [ -78.807113924808277, 36.087066275524258 ], [ -78.807130505904624, 36.087074007288628 ], [ -78.80732623850065, 36.087165277203496 ], [ -78.807456518809886, 36.087271488198525 ], [ -78.807601058815948, 36.087471971502737 ], [ -78.807600721339227, 36.08761330363636 ], [ -78.807593910249352, 36.087693834151096 ], [ -78.80759306383591, 36.087703735658543 ], [ -78.807585780544855, 36.087789965777674 ], [ -78.807574645070531, 36.087878669147067 ], [ -78.807572409587408, 36.087896480464529 ], [ -78.80755621339749, 36.088025500999834 ], [ -78.807473733560116, 36.088117246414626 ], [ -78.807462346573999, 36.088129912556383 ], [ -78.807439888770972, 36.088154893850373 ], [ -78.807294587291267, 36.088272455401246 ], [ -78.807120365244714, 36.088354646125637 ], [ -78.806772119027684, 36.088436532943426 ], [ -78.80652079654152, 36.088481475253616 ], [ -78.806510970071599, 36.088483231548047 ], [ -78.806447109717595, 36.088476367589919 ], [ -78.806205664220116, 36.088450414340393 ], [ -78.806118279249276, 36.088441020100099 ], [ -78.806052858580827, 36.088444900761466 ], [ -78.805585281055357, 36.088472644819703 ], [ -78.8048923079768, 36.088536482029774 ], [ -78.804651283827226, 36.088576850511352 ], [ -78.80462363901826, 36.088581479287512 ], [ -78.804572423843524, 36.088590059289608 ], [ -78.804550162572326, 36.08859630897139 ], [ -78.804486954323181, 36.088614053416961 ], [ -78.803959140430365, 36.088762217002284 ], [ -78.803532333681687, 36.088956320933185 ], [ -78.803278731726067, 36.089139879074395 ], [ -78.803158400349488, 36.089312828239208 ], [ -78.80313131534902, 36.089496750401864 ], [ -78.803157342837835, 36.08974569692645 ], [ -78.803209960297096, 36.090027128157864 ], [ -78.803272648039595, 36.090174473666799 ], [ -78.803279664263044, 36.090190966836367 ], [ -78.80329309392485, 36.090222529145954 ], [ -78.80331592788535, 36.0902762022872 ], [ -78.803501864672711, 36.090514582708387 ], [ -78.803767750847911, 36.09076388617386 ], [ -78.804139093089105, 36.091043740557133 ], [ -78.804484758980536, 36.091347313023356 ], [ -78.804653565362671, 36.091603794433162 ], [ -78.804851058756569, 36.091894795576735 ], [ -78.804882850478364, 36.09195226337765 ], [ -78.804943929932421, 36.092062674338869 ], [ -78.804983390446338, 36.092273760714875 ], [ -78.805002939888624, 36.092446934418277 ], [ -78.80506241684067, 36.092652640701225 ], [ -78.805101719756593, 36.092928665533996 ], [ -78.805114576537008, 36.093112623549864 ], [ -78.805147234205549, 36.093394048764956 ], [ -78.805179923104191, 36.09364841698887 ], [ -78.805225431570065, 36.093808418834904 ], [ -78.805288978774044, 36.093912104813867 ], [ -78.805291734925433, 36.093918517010202 ], [ -78.805230796789544, 36.094007939148852 ], [ -78.804692597788005, 36.094797718783198 ], [ -78.80461457244553, 36.099016182882607 ], [ -78.804360528761976, 36.112750616369681 ], [ -78.804315674221257, 36.115174734994014 ], [ -78.804159180319019, 36.123632844372743 ], [ -78.804117199746443, 36.125840452688443 ], [ -78.804115248385429, 36.125943030780597 ], [ -78.804104943178473, 36.126484965018143 ], [ -78.803835994227299, 36.140219210876616 ], [ -78.80356692017692, 36.153953372512468 ], [ -78.803297753190918, 36.16768745098075 ], [ -78.80302852879862, 36.181421443737136 ], [ -78.802819026654134, 36.195155448045533 ], [ -78.802658904439966, 36.208889444898773 ] ] ] ] } }
]
}
